{"type": "FeatureCollection", "features": [{"type": "Feature", "properties": {"norad_id": 2807, "name": "OPS 7218 (TRANSIT 16)", "group": "nnss", "lat": -87.7932125805883, "lon": -14.387287769351756, "alt_km": 1090.9654450846792, "timestamp": "2025-12-09T05:43:20.994155+00:00", "meta": {"OBJECT_NAME": "OPS 7218 (TRANSIT 16)", "OBJECT_ID": "1967-048A", "EPOCH": "2025-12-08T18:34:18.315840", "MEAN_MOTION": 13.50721211, "ECCENTRICITY": 0.0021783, "INCLINATION": 89.6731, "RA_OF_ASC_NODE": 354.1478, "ARG_OF_PERICENTER": 124.7068, "MEAN_ANOMALY": 49.4634, "EPHEMERIS_TYPE": 0, "CLASSIFICATION_TYPE": "U", "NORAD_CAT_ID": 2807, "ELEMENT_SET_NO": 999, "REV_AT_EPOCH": 88222, "BSTAR": 0.00024295, "MEAN_MOTION_DOT": 1.67e-06, "MEAN_MOTION_DDOT": 0}, "tle": {"line1": "1 02807U 67048A   25342.77382310  .00000167  00000+0  24295-3 0  9997", "line2": "2 02807  89.6731 354.1478 0021783 124.7068  49.4634 13.50721211882229"}}, "geometry": {"type": "Point", "coordinates": [-14.387287769351756, -87.7932125805883]}}, {"type": "Feature", "properties": {"norad_id": 2965, "name": "OPS 4947 (TRANSIT 17)", "group": "nnss", "lat": -57.45418543484314, "lon": 23.526561115690495, "alt_km": 1048.2920439624522, "timestamp": "2025-12-09T05:43:20.994178+00:00", "meta": {"OBJECT_NAME": "OPS 4947 (TRANSIT 17)", "OBJECT_ID": "1967-092A", "EPOCH": "2025-12-08T16:23:38.512896", "MEAN_MOTION": 13.53452092, "ECCENTRICITY": 0.004596, "INCLINATION": 89.2499, "RA_OF_ASC_NODE": 24.745, "ARG_OF_PERICENTER": 246.6699, "MEAN_ANOMALY": 231.189, "EPHEMERIS_TYPE": 0, "CLASSIFICATION_TYPE": "U", "NORAD_CAT_ID": 2965, "ELEMENT_SET_NO": 999, "REV_AT_EPOCH": 87042, "BSTAR": 0.00027139, "MEAN_MOTION_DOT": 1.94e-06, "MEAN_MOTION_DDOT": 0}, "tle": {"line1": "1 02965U 67092A   25342.68308464  .00000194  00000+0  27139-3 0  9999", "line2": "2 02965  89.2499  24.7450 0045960 246.6699 231.1890 13.53452092870422"}}, "geometry": {"type": "Point", "coordinates": [23.526561115690495, -57.45418543484314]}}, {"type": "Feature", "properties": {"norad_id": 3133, "name": "OPS 7034 (TRANSIT 18)", "group": "nnss", "lat": 65.59905511426554, "lon": 93.68974176655958, "alt_km": 1036.7065275495952, "timestamp": "2025-12-09T05:43:20.994192+00:00", "meta": {"OBJECT_NAME": "OPS 7034 (TRANSIT 18)", "OBJECT_ID": "1968-012A", "EPOCH": "2025-12-08T20:34:01.223904", "MEAN_MOTION": 13.51564436, "ECCENTRICITY": 0.0073477, "INCLINATION": 90.0276, "RA_OF_ASC_NODE": 273.6278, "ARG_OF_PERICENTER": 180.4121, "MEAN_ANOMALY": 239.6766, "EPHEMERIS_TYPE": 0, "CLASSIFICATION_TYPE": "U", "NORAD_CAT_ID": 3133, "ELEMENT_SET_NO": 999, "REV_AT_EPOCH": 56866, "BSTAR": 0.00029763, "MEAN_MOTION_DOT": 2.07e-06, "MEAN_MOTION_DDOT": 0}, "tle": {"line1": "1 03133U 68012A   25342.85695861  .00000207  00000+0  29763-3 0  9999", "line2": "2 03133  90.0276 273.6278 0073477 180.4121 239.6766 13.51564436568664"}}, "geometry": {"type": "Point", "coordinates": [93.68974176655958, 65.59905511426554]}}, {"type": "Feature", "properties": {"norad_id": 4507, "name": "NNSS 19 (TRANSIT 19)", "group": "nnss", "lat": 89.18363123440608, "lon": 54.93162872738178, "alt_km": 1166.2055226607617, "timestamp": "2025-12-09T05:43:20.994205+00:00", "meta": {"OBJECT_NAME": "NNSS 19 (TRANSIT 19)", "OBJECT_ID": "1970-067A", "EPOCH": "2025-12-08T18:36:34.350048", "MEAN_MOTION": 13.51313811, "ECCENTRICITY": 0.0170791, "INCLINATION": 90.0057, "RA_OF_ASC_NODE": 234.5311, "ARG_OF_PERICENTER": 304.9623, "MEAN_ANOMALY": 53.559, "EPHEMERIS_TYPE": 0, "CLASSIFICATION_TYPE": "U", "NORAD_CAT_ID": 4507, "ELEMENT_SET_NO": 999, "REV_AT_EPOCH": 72168, "BSTAR": 0.00034752, "MEAN_MOTION_DOT": 2.55e-06, "MEAN_MOTION_DDOT": 0}, "tle": {"line1": "1 04507U 70067A   25342.77539757  .00000255  00000+0  34752-3 0  9997", "line2": "2 04507  90.0057 234.5311 0170791 304.9623  53.5590 13.51313811721688"}}, "geometry": {"type": "Point", "coordinates": [54.93162872738178, 89.18363123440608]}}, {"type": "Feature", "properties": {"norad_id": 6909, "name": "NNSS 20 (TRANSIT 20)", "group": "nnss", "lat": -89.14136021784476, "lon": 84.7595743838189, "alt_km": 1117.4016851719925, "timestamp": "2025-12-09T05:43:20.994217+00:00", "meta": {"OBJECT_NAME": "NNSS 20 (TRANSIT 20)", "OBJECT_ID": "1973-081A", "EPOCH": "2025-12-08T19:40:02.097408", "MEAN_MOTION": 13.71431673, "ECCENTRICITY": 0.0156606, "INCLINATION": 89.8561, "RA_OF_ASC_NODE": 255.1129, "ARG_OF_PERICENTER": 89.9209, "MEAN_ANOMALY": 271.9898, "EPHEMERIS_TYPE": 0, "CLASSIFICATION_TYPE": "U", "NORAD_CAT_ID": 6909, "ELEMENT_SET_NO": 999, "REV_AT_EPOCH": 80307, "BSTAR": 0.00038172, "MEAN_MOTION_DOT": 3.86e-06, "MEAN_MOTION_DDOT": 0}, "tle": {"line1": "1 06909U 73081A   25342.81946872  .00000386  00000+0  38172-3 0  9994", "line2": "2 06909  89.8561 255.1129 0156606  89.9209 271.9898 13.71431673803077"}}, "geometry": {"type": "Point", "coordinates": [84.7595743838189, -89.14136021784476]}}, {"type": "Feature", "properties": {"norad_id": 10457, "name": "TRANSAT", "group": "nnss", "lat": 55.64798872439284, "lon": -101.79423384602387, "alt_km": 1066.2015848963865, "timestamp": "2025-12-09T05:43:20.994228+00:00", "meta": {"OBJECT_NAME": "TRANSAT", "OBJECT_ID": "1977-106A", "EPOCH": "2025-12-08T20:48:25.255008", "MEAN_MOTION": 13.48942788, "ECCENTRICITY": 0.0025026, "INCLINATION": 89.6481, "RA_OF_ASC_NODE": 78.7341, "ARG_OF_PERICENTER": 200.8661, "MEAN_ANOMALY": 280.8023, "EPHEMERIS_TYPE": 0, "CLASSIFICATION_TYPE": "U", "NORAD_CAT_ID": 10457, "ELEMENT_SET_NO": 999, "REV_AT_EPOCH": 36691, "BSTAR": 0.00022885, "MEAN_MOTION_DOT": 1.54e-06, "MEAN_MOTION_DDOT": 0}, "tle": {"line1": "1 10457U 77106A   25342.86695897  .00000154  00000+0  22885-3 0  9999", "line2": "2 10457  89.6481  78.7341 0025026 200.8661 280.8023 13.48942788366915"}}, "geometry": {"type": "Point", "coordinates": [-101.79423384602387, 55.64798872439284]}}, {"type": "Feature", "properties": {"norad_id": 12458, "name": "NOVA 1", "group": "nnss", "lat": -11.106022390945137, "lon": 91.40565407239505, "alt_km": 1183.0357961442087, "timestamp": "2025-12-09T05:43:20.994239+00:00", "meta": {"OBJECT_NAME": "NOVA 1", "OBJECT_ID": "1981-044A", "EPOCH": "2025-12-08T19:29:20.064192", "MEAN_MOTION": 13.23277917, "ECCENTRICITY": 0.0015796, "INCLINATION": 89.8524, "RA_OF_ASC_NODE": 91.4407, "ARG_OF_PERICENTER": 113.6385, "MEAN_ANOMALY": 5.4134, "EPHEMERIS_TYPE": 0, "CLASSIFICATION_TYPE": "U", "NORAD_CAT_ID": 12458, "ELEMENT_SET_NO": 999, "REV_AT_EPOCH": 15134, "BSTAR": 0.00027353, "MEAN_MOTION_DOT": 1.25e-06, "MEAN_MOTION_DDOT": 0}, "tle": {"line1": "1 12458U 81044A   25342.81203778  .00000125  00000+0  27353-3 0  9999", "line2": "2 12458  89.8524  91.4407 0015796 113.6385   5.4134 13.23277917151341"}}, "geometry": {"type": "Point", "coordinates": [91.40565407239505, -11.106022390945137]}}, {"type": "Feature", "properties": {"norad_id": 15362, "name": "NOVA 3", "group": "nnss", "lat": -44.559770227104345, "lon": -99.62700758413074, "alt_km": 1190.4992248682756, "timestamp": "2025-12-09T05:43:20.994249+00:00", "meta": {"OBJECT_NAME": "NOVA 3", "OBJECT_ID": "1984-110A", "EPOCH": "2025-12-08T18:18:02.464128", "MEAN_MOTION": 13.23043855, "ECCENTRICITY": 0.0030797, "INCLINATION": 90.1223, "RA_OF_ASC_NODE": 80.4879, "ARG_OF_PERICENTER": 343.1969, "MEAN_ANOMALY": 136.1684, "EPHEMERIS_TYPE": 0, "CLASSIFICATION_TYPE": "U", "NORAD_CAT_ID": 15362, "ELEMENT_SET_NO": 999, "REV_AT_EPOCH": 98646, "BSTAR": 0.00022397, "MEAN_MOTION_DOT": 1.03e-06, "MEAN_MOTION_DDOT": 0}, "tle": {"line1": "1 15362U 84110A   25342.76252852  .00000103  00000+0  22397-3 0  9993", "line2": "2 15362  90.1223  80.4879 0030797 343.1969 136.1684 13.23043855986469"}}, "geometry": {"type": "Point", "coordinates": [-99.62700758413074, -44.559770227104345]}}, {"type": "Feature", "properties": {"norad_id": 15935, "name": "OSCAR 30", "group": "nnss", "lat": 36.95021727436049, "lon": -80.0861068206962, "alt_km": 1037.1846258712749, "timestamp": "2025-12-09T05:43:20.994260+00:00", "meta": {"OBJECT_NAME": "OSCAR 30", "OBJECT_ID": "1985-066A", "EPOCH": "2025-12-08T20:34:52.400352", "MEAN_MOTION": 13.36077406, "ECCENTRICITY": 0.0169412, "INCLINATION": 90.1649, "RA_OF_ASC_NODE": 99.7836, "ARG_OF_PERICENTER": 94.7382, "MEAN_ANOMALY": 15.8226, "EPHEMERIS_TYPE": 0, "CLASSIFICATION_TYPE": "U", "NORAD_CAT_ID": 15935, "ELEMENT_SET_NO": 999, "REV_AT_EPOCH": 96401, "BSTAR": 0.00028404, "MEAN_MOTION_DOT": 1.68e-06, "MEAN_MOTION_DDOT": 0}, "tle": {"line1": "1 15935U 85066A   25342.85755093  .00000168  00000+0  28404-3 0  9991", "line2": "2 15935  90.1649  99.7836 0169412  94.7382  15.8226 13.36077406964013"}}, "geometry": {"type": "Point", "coordinates": [-80.0861068206962, 36.95021727436049]}}, {"type": "Feature", "properties": {"norad_id": 15936, "name": "OSCAR 24", "group": "nnss", "lat": -40.42910384389591, "lon": -87.90895654693048, "alt_km": 1193.7920244015859, "timestamp": "2025-12-09T05:43:20.994271+00:00", "meta": {"OBJECT_NAME": "OSCAR 24", "OBJECT_ID": "1985-066B", "EPOCH": "2025-12-08T20:13:44.976288", "MEAN_MOTION": 13.35935027, "ECCENTRICITY": 0.0170458, "INCLINATION": 90.1788, "RA_OF_ASC_NODE": 92.2365, "ARG_OF_PERICENTER": 101.2137, "MEAN_ANOMALY": 16.1688, "EPHEMERIS_TYPE": 0, "CLASSIFICATION_TYPE": "U", "NORAD_CAT_ID": 15936, "ELEMENT_SET_NO": 999, "REV_AT_EPOCH": 96591, "BSTAR": 0.00026157, "MEAN_MOTION_DOT": 1.56e-06, "MEAN_MOTION_DDOT": 0}, "tle": {"line1": "1 15936U 85066B   25342.84288167  .00000156  00000+0  26157-3 0  9994", "line2": "2 15936  90.1788  92.2365 0170458 101.2137  16.1688 13.35935027965914"}}, "geometry": {"type": "Point", "coordinates": [-87.90895654693048, -40.42910384389591]}}]}